{
  "links" : {
    "next" : "https://api.nasa.gov/neo/rest/v1/feed?start_date=2015-07-16&end_date=2015-07-16&detailed=true&api_key=t0TVs3DtDT2H8Oy2Zy8m2eVrNsAVKAexjcZXUckd",
    "prev" : "https://api.nasa.gov/neo/rest/v1/feed?start_date=2015-07-14&end_date=2015-07-14&detailed=true&api_key=t0TVs3DtDT2H8Oy2Zy8m2eVrNsAVKAexjcZXUckd",
    "self" : "https://api.nasa.gov/neo/rest/v1/feed?start_date=2015-07-15&end_date=2015-07-15&detailed=true&api_key=t0TVs3DtDT2H8Oy2Zy8m2eVrNsAVKAexjcZXUckd"
  },
  "element_count" : 8,
  "near_earth_objects" : {
    "2015-07-15" : [ {
      "links" : {
        "self" : "https://api.nasa.gov/neo/rest/v1/neo/3740670?api_key=t0TVs3DtDT2H8Oy2Zy8m2eVrNsAVKAexjcZXUckd"
      },
      "neo_reference_id" : "3740670",
      "name" : "(2016 BW)",
      "nasa_jpl_url" : "http://ssd.jpl.nasa.gov/sbdb.cgi?sstr=3740670",
      "absolute_magnitude_h" : 26.1,
      "estimated_diameter" : {
        "kilometers" : {
          "estimated_diameter_min" : 0.0160160338,
          "estimated_diameter_max" : 0.0358129403
        },
        "meters" : {
          "estimated_diameter_min" : 16.0160337979,
          "estimated_diameter_max" : 35.8129403019
        },
        "miles" : {
          "estimated_diameter_min" : 0.0099518989,
          "estimated_diameter_max" : 0.0222531225
        },
        "feet" : {
          "estimated_diameter_min" : 52.5460443254,
          "estimated_diameter_max" : 117.4965270602
        }
      },
      "is_potentially_hazardous_asteroid" : false,
      "close_approach_data" : [ {
        "close_approach_date" : "2015-07-15",
        "epoch_date_close_approach" : 1436943600000,
        "relative_velocity" : {
          "kilometers_per_second" : "8.3400116088",
          "kilometers_per_hour" : "30024.041791644",
          "miles_per_hour" : "18655.7719677024"
        },
        "miss_distance" : {
          "astronomical" : "0.3252752812",
          "lunar" : "126.532081604",
          "kilometers" : "48660488",
          "miles" : "30236226"
        },
        "orbiting_body" : "Earth"
      } ],
      "orbital_data" : {
        "orbit_id" : "4",
        "orbit_determination_date" : "2017-04-06 08:28:59",
        "orbit_uncertainty" : "8",
        "minimum_orbit_intersection" : ".0350213",
        "jupiter_tisserand_invariant" : "5.279",
        "epoch_osculation" : "2457408.5",
        "eccentricity" : ".2476569278661727",
        "semi_major_axis" : "1.187084854418459",
        "inclination" : "14.6405997127746",
        "ascending_node_longitude" : "116.9441117939986",
        "orbital_period" : "472.4121654033696",
        "perihelion_distance" : ".8930950662567207",
        "perihelion_argument" : "289.4140279850786",
        "aphelion_distance" : "1.481074642580197",
        "perihelion_time" : "2457345.490645902177",
        "mean_anomaly" : "48.0160527954399",
        "mean_motion" : ".7620464212487281",
        "equinox" : "J2000"
      }
    }, {
      "links" : {
        "self" : "https://api.nasa.gov/neo/rest/v1/neo/3781246?api_key=t0TVs3DtDT2H8Oy2Zy8m2eVrNsAVKAexjcZXUckd"
      },
      "neo_reference_id" : "3781246",
      "name" : "(2017 QG33)",
      "nasa_jpl_url" : "http://ssd.jpl.nasa.gov/sbdb.cgi?sstr=3781246",
      "absolute_magnitude_h" : 23.586,
      "estimated_diameter" : {
        "kilometers" : {
          "estimated_diameter_min" : 0.050974735,
          "estimated_diameter_max" : 0.1139829726
        },
        "meters" : {
          "estimated_diameter_min" : 50.9747349879,
          "estimated_diameter_max" : 113.9829725681
        },
        "miles" : {
          "estimated_diameter_min" : 0.0316742221,
          "estimated_diameter_max" : 0.0708257136
        },
        "feet" : {
          "estimated_diameter_min" : 167.2399495379,
          "estimated_diameter_max" : 373.9598957203
        }
      },
      "is_potentially_hazardous_asteroid" : false,
      "close_approach_data" : [ {
        "close_approach_date" : "2015-07-15",
        "epoch_date_close_approach" : 1436943600000,
        "relative_velocity" : {
          "kilometers_per_second" : "8.0801338026",
          "kilometers_per_hour" : "29088.4816894137",
          "miles_per_hour" : "18074.4513030693"
        },
        "miss_distance" : {
          "astronomical" : "0.2626707947",
          "lunar" : "102.1789321899",
          "kilometers" : "39294992",
          "miles" : "24416776"
        },
        "orbiting_body" : "Earth"
      } ],
      "orbital_data" : {
        "orbit_id" : "4",
        "orbit_determination_date" : "2017-09-21 06:20:45",
        "orbit_uncertainty" : "5",
        "minimum_orbit_intersection" : ".121365",
        "jupiter_tisserand_invariant" : "6.126",
        "epoch_osculation" : "2458000.5",
        "eccentricity" : ".3107667481387484",
        "semi_major_axis" : ".9797919510699793",
        "inclination" : "8.555961980104366",
        "ascending_node_longitude" : "321.3069908179823",
        "orbital_period" : "354.2413285787765",
        "perihelion_distance" : ".6753051925834421",
        "perihelion_argument" : "167.9257553962281",
        "aphelion_distance" : "1.284278709556516",
        "perihelion_time" : "2458131.183662795669",
        "mean_anomaly" : "227.1918976953056",
        "mean_motion" : "1.016256351127429",
        "equinox" : "J2000"
      }
    } ]
  }
}